#cP2021  3 25  0  0  0.00000000      96 ORBIT IGb14 HLM  IGS
## 2150 345600.00000000   900.00000000 59298 0.0000000000000
+   32   G01G02G03G04G05G06G07G08G09G10G11G12G13G14G15G16G17
+        G18G19G20G21G22G23G24G25G26G27G28G29G30G31G32  0  0
+          0  0  0  0  0  0  0  0  0  0  0  0  0  0  0  0  0
+          0  0  0  0  0  0  0  0  0  0  0  0  0  0  0  0  0
+          0  0  0  0  0  0  0  0  0  0  0  0  0  0  0  0  0
++         1  2  1  2  2  1  2  2  2  1  2  1  2  2  2  2  2
++         2  2  1  2  1  2  2  1  1  2  1  2  2  1  1  0  0
++         0  0  0  0  0  0  0  0  0  0  0  0  0  0  0  0  0
++         0  0  0  0  0  0  0  0  0  0  0  0  0  0  0  0  0
++         0  0  0  0  0  0  0  0  0  0  0  0  0  0  0  0  0
%c G  cc GPS ccc cccc cccc cccc cccc ccccc ccccc ccccc ccccc
%c cc cc ccc ccc cccc cccc cccc cccc ccccc ccccc ccccc ccccc
%f  1.2500000  1.025000000  0.00000000000  0.000000000000000
%f  0.0000000  0.000000000  0.00000000000  0.000000000000000
%i    0    0    0    0      0      0      0      0         0
%i    0    0    0    0      0      0      0      0         0
/* FINAL ORBIT COMBINATION FROM WEIGHTED AVERAGE OF:        
/* cod emr esa gfz grg jpl mit ngs sio                      
/* REFERENCED TO IGS TIME (IGST) AND TO WEIGHTED MEAN POLE: 
/* PCV:IGS14_2148 OL/AL:FES2004  NONE     Y  ORB:CMB CLK:CMB
*  2021  3 25 20 15  0.00000000
PG01  13364.600288 -15912.602220  16086.844021    732.661345  5  5  3  63       
PG02 -13559.905482  -8898.410320 -20369.871485   -589.612630  6  6  4  84       
PG03  22247.231560 -13151.255007  -5950.409726   -118.263666  5  3  6  83       
PG04  15008.355805  -6448.166403 -20949.161962   -188.306857  6  5  5  87       
PG05 -24320.085671   2254.658040 -10814.397175    -37.256797  3  6  2  73       
PG06  -6888.906414 -20826.118919 -14870.823598      2.834809  4  5  2  50       
PG07   6759.075602 -25055.740673  -3883.078282    101.555763  5  5  5 103       
PG08  20333.607861    666.932998  17231.618936    -15.117579  2  5  5  97       
PG09   4623.366180 -15407.910600 -21187.667522   -334.007013  4  2  6  92       
PG10   3639.704799  14751.527719  21884.694516    -88.535784  4  4  2  90       
PG11  12552.833279 -11183.297735  20183.659817     11.220653  4  8  6  90       
PG12 -24417.126488   9844.025958  -3079.938512    -19.023033  3  6  4  90       
PG13 -21389.178834 -10815.679362  11448.917189    112.059650  5  5  4  75       
PG14  -1646.405199 -15450.501218  21528.492286     99.302811  6  6  4  93       
PG15 -20499.388086   1839.473427  16616.005897   -160.696413  3  7     62       
PG16  23373.971572   2402.236477 -13066.402396   -299.583153  6  3  3  74       
PG17 -10871.155820 -20994.074992  12529.218473    415.629964  5  7  6 108       
PG18  -4972.696195  26048.516879   -713.831483    351.144727  6  7  7  78       
PG19 -16881.469454 -20165.353123   3795.295098    -21.616842  6  6  6 119       
PG20 -12699.093143  18744.475827  13587.049840    523.814705  5  6  3  75       
PG21  15350.046104  -7673.134778  20884.008909    105.948397  4  4  4  77       
PG22  24522.014447  -9174.935736   4030.351799   -652.676179  4  4  4  73       
PG23  -8640.078705  17348.533204  18122.089621    116.407582  4  7  4  89       
PG24 -14833.020671  10662.322780  18903.515865      0.581668     5  4  47       
PG25 -15036.552016  16648.584218 -14262.361627    105.876302  4  4  2  54       
PG26  16485.493724   8069.771307 -19344.114264     63.096223  4  6  4  84       
PG27  22835.000012  11479.584014   7733.261327   -100.764612  3  5  4 102       
PG28  -3891.295374 -14698.571468  22336.865564    596.710831  5  4  2  96       
PG29  -4779.830698  14963.276516 -21455.011460   -318.413432  6  5  6  72       
PG30  -1711.098761 -25088.462069   8233.458777   -403.652654  4  5  4  85       
PG31   8818.348818  18414.799181 -16814.471495   -107.764938  4  6  4  86       
PG32  13593.008491  20281.713519  10765.188974     21.675524  4  5  3  79       
*  2021  3 25 20 30  0.00000000
PG01  13259.819591 -13912.824638  17926.272682    732.653085  5  5  3  60       
PG02 -13352.919625 -11296.476670 -19320.610501   -589.616023  6  6  4 107       
PG03  22811.061972 -13137.392717  -3136.062195   -118.273358  5  3  6  79       
PG04  16788.651255  -4923.642135 -19995.103757   -188.308759  6  5  5  92       
PG05 -23194.228661   1486.821561 -13177.218674    -37.257856  4  6  1  94       
PG06  -6551.746725 -22377.314856 -12601.856188      2.836850  4  5  2  79       
PG07   6990.369454 -24370.325231  -6662.240036    101.566617  6  5  5  98       
PG08  21756.220369   1859.305417  15327.093960    -15.118402  2  4  5 103       
PG09   6630.129762 -14020.005788 -21617.433814   -334.009617  4  2  5  81       
PG10   1370.282530  15692.114634  21461.003029    -88.542845  4  4  2  86       
PG11  13486.789384  -8927.519158  20654.930775     11.230259  4  8  6  96       
PG12 -24643.692559   9682.048474   -196.862926    -19.028034  3  6  5  95       
PG13 -22095.280963 -11779.782723   8916.158008    112.063822  6  5  4  88       
PG14    649.162787 -16265.503993  20972.971324     99.301902  5  6  4 100       
PG15 -21990.408639    721.806167  14763.086111   -160.693958  4  7     59       
PG16  21928.923156   3016.469160 -15258.045291   -299.588323  6  2  2  81       
PG17  -9634.885734 -20138.269620  14815.585330    415.636039  5  6  6 101       
PG18  -5177.265659  25773.098844  -3572.178536    351.145207  6  6  7  94       
PG19 -16294.831298 -19879.907637   6603.832945    -21.612543  6  6  6 106       
PG20 -14077.676625  19260.336152  11294.516039    523.813969  5  6  3  81       
PG21  15334.023313  -5375.622383  21667.066189    105.950931  4  5  4  93       
PG22  24157.433838  -8593.279510   6750.367872   -652.669068  4  4  4  75       
PG23 -10500.134072  18040.258217  16379.127494    116.406436  4  6  4  84       
PG24 -14876.661790   8364.662862  20015.280417      0.580518     5  5  53       
PG25 -16472.129628  17038.244551 -11967.525925    105.882973  3  4  2  66       
PG26  14493.673489   9148.027255 -20408.448776     63.101062  4  6  4  74       
PG27  23323.099464  12061.941024   4990.498231   -100.770906  4  5  4 111       
PG28  -1588.072304 -15439.858049  22129.324031    596.705629  5  4     95       
PG29  -6674.449415  13377.273067 -21994.664442   -318.419350  6  6  6  88       
PG30  -1280.897521 -25826.311422   5564.002739   -403.657473  5  5  4  90       
PG31   8358.467700  20184.545546 -14856.057094   -107.767064  5  6  4  81       
PG32  12382.874801  19652.417758  13137.323393     21.676033  4  4  4  90       
*  2021  3 25 20 45  0.00000000
PG01  13251.991471 -11718.109317  19447.353258    732.644843  4  4  3  75       
PG02 -13266.038434 -13556.504214 -17919.481729   -589.619309  6  6  4 116       
PG03  23087.129763 -13007.566905   -267.438032   -118.283001  4  3  5  71       
PG04  18541.527519  -3567.764099 -18697.316765   -188.310705  5  6  5  87       
PG05 -21888.167901    540.370548 -15317.235683    -37.258682  4  6     88       
PG06  -6316.364203 -23674.385816 -10114.636592      2.838914  5  4  2 101       
PG07   7236.280652 -23384.335086  -9322.121176    101.577377  6  4  5 107       
PG08  23045.969142   2849.810928  13162.257792    -15.120126  3  4  5  95       
PG09   8728.306245 -12721.892873 -21677.113784   -334.012235  4  3  4  85       
PG10   -787.114538  16722.663684  20670.574059    -88.549885  4  4  3  91       
PG11  14533.568503  -6680.760549  20757.405091     11.239945  3  8  5  99       
PG12 -24576.569491   9403.814501   2689.605398    -19.032922  4  6  5  35       
PG13 -22627.914277 -12510.612658   6230.258315    112.067622  6  5  3  84       
PG14   2823.726566 -17163.701799  20056.117645     99.301043  5  5  3  98       
PG15 -23329.715096   -219.302213  12654.230763   -160.691413  5  7     77       
PG16  20305.416284   3795.235053 -17196.470815   -299.593739  6  2  2  58       
PG17  -8161.002642 -19209.187153  16853.586178    415.641544  5  6  6 101       
PG18  -5371.067199  25189.060586  -6368.830377    351.145640  6  6  6  86       
PG19 -15448.582626 -19430.774341   9298.413754    -21.608094  6  6  5  90       
PG20 -15207.802063  19685.803734   8803.947594    523.814328  5  6  4  77       
PG21  15440.615170  -3019.777122  22098.431762    105.953379  3  5  4  88       
PG22  23566.259731  -7836.899328   9353.616398   -652.661659  4  4  3  85       
PG23 -12133.258389  18727.377279  14353.422741    116.405269  5  6  4  86       
PG24 -15029.020303   5967.495479  20772.505214      0.580273  1  6  5  46       
PG25 -17646.361921  17378.777359  -9466.494812    105.889622  3  5  2  45       
PG26  12468.467306  10373.633219 -21125.158366     63.105900  4  6  3  72       
PG27  23580.441301  12443.227203   2163.420663   -100.777183  5  5  4 105       
PG28    629.537329 -16292.302794  21560.467984    596.700332  4  4     99       
PG29  -8686.152953  11875.984513 -22157.324261   -318.425305  6  6  5  72       
PG30   -911.991849 -26277.153564   2797.589748   -403.662308  5  5  4  74       
PG31   8006.849318  21741.073425 -12637.899690   -107.769020  5  5  5  80       
PG32  10928.051529  18948.946565  15286.541879     21.676397  3  4  4  88       
EOF
